EQUISAT                 
1 43552U 98067PA  20334.54332900  .00278902  41783-4  68426-3 0  9991
2 43552  51.6238 152.2202 0003533 276.6586  83.4020 15.95599148136322
AEROCUBE 12A            
1 43556U 18046C   20333.63767551  .00005290  00000-0  18879-3 0  9995
2 43556  51.6430  36.3624 0008068 160.4471 199.6821 15.30481243132512
AEROCUBE 12B            
1 43557U 18046D   20334.45087603  .00004925  00000-0  17866-3 0  9999
2 43557  51.6418  33.5234 0008304 163.2251 196.9006 15.30098299132571
SIRIUSSAT-1             
1 43595U 98067PG  20333.89163159  .00378127  75688-4  56251-3 0  9997
2 43595  51.6120 155.8711 0010700 218.5365 145.8295 16.04161838131062
SIRIUSSAT-2             
1 43596U 98067PH  20332.90269722  .00358622  68043-4  57179-3 0  9997
2 43596  51.6474 162.0760 0010693 139.7167 221.8045 16.03020335130897
SURFSAT                 
1 43614U 18070B   20333.78266171  .00008653  00000-0  21438-3 0  9996
2 43614  93.0292 222.6681 0017568  66.1590 294.1504 15.40246113123767
CP7 (DAVE)              
1 43615U 18070C   20333.76711705  .00007960  00000-0  19857-3 0  9995
2 43615  93.0295 222.6407 0017722  65.8831 294.4275 15.40040539123754
ELFIN-B                 
1 43616U 18070D   20334.48680865  .00010519  00000-0  24666-3 0  9996
2 43616  93.0253 222.9498 0017907  63.5518 296.7572 15.41891925123933
ELFIN-A                 
1 43617U 18070E   20333.45746505  .00012483  00000-0  28996-3 0  9999
2 43617  93.0311 223.1766 0017370  64.3102 295.9945 15.42175399123781
CUBEBEL-1 (BSUSAT-1)    
1 43666U 18083E   20334.45171473  .00002533  00000-0  12529-3 0  9994
2 43666  97.4765 359.2035 0015904 141.2791 324.5786 15.18633021115659
CICERO 10               
1 43690U 18088A   20333.51147650  .00002368  00000-0  10604-3 0  9990
2 43690  85.0353 330.2024 0017133  71.5452 288.7650 15.20564727113663
IRVINE01                
1 43693U 18088D   20333.46424237  .00008370  00000-0  34465-3 0  9996
2 43693  85.0323 328.3860 0019316  52.6476 307.6522 15.23771555113818
PROXIMA I               
1 43694U 18088E   20333.70989789  .00002823  00000-0  12016-3 0  9997
2 43694  85.0294 328.1884 0020697  44.8186 315.4723 15.22311134113828
PROXIMA II              
1 43696U 18088G   20334.43107197  .00002717  00000-0  11558-3 0  9997
2 43696  85.0296 327.7164 0020640  42.2896 317.9933 15.22315140113939
FACSAT-1                
1 43721U 18096C   20334.51810513  .00004336  00000-0  16192-3 0  9995
2 43721  97.4070  47.1103 0015786 259.2762 229.7671 15.27803875111588
CENTAURI-2              
1 43722U 18096D   20333.86637501  .00006586  00000-0  23923-3 0  9996
2 43722  97.4092  46.9195 0015719 259.7694 100.1773 15.28516183111507
INNOSAT-2               
1 43738U 18096V   20334.47540940  .00007965  00000-0  26347-3 0  9996
2 43738  97.4121  50.2239 0021208 262.7321 221.3150 15.31400191111774
SIRION PATHFINDER-2     
1 43759U 18099B   20334.19435439 -.00000041  00000-0  14843-5 0  9996
2 43759  97.6897  42.9006 0014294 358.7200   1.3982 14.95359316108550
CORVUS-BC 4             
1 43767U 18099K   20334.19682596  .00000317  00000-0  34293-4 0  9998
2 43767  97.6879  42.1279 0011995   4.0585 356.0730 14.94801994108515
MOVE-II                 
1 43780U 18099Y   20334.45685005  .00001088  00000-0  10305-3 0  9993
2 43780  97.6911  43.1550 0013474   9.2386 350.9081 14.95593403108572
SPACEBEE-7              
1 43816U 18099BL  20334.16462824  .00000968  00000-0  91616-4 0  9994
2 43816  97.6929  43.3577 0013088 355.3609   4.7489 14.95856566108114
SPACEBEE-5              
1 43817U 18099BM  20334.44212494  .00002071  00000-0  18626-3 0  9998
2 43817  97.7001  44.3767 0012643 352.9702   7.1340 14.96688934108185
SPACEBEE-6              
1 43818U 18099BN  20333.43539527  .00001199  00000-0  11156-3 0  9997
2 43818  97.6951  42.8713 0013049 357.2177   2.8970 14.96109396108167
SHIELDS 1               
1 43850U 18104B   20333.76048581  .00001454  00000-0  62582-4 0  9995
2 43850  85.0312  66.7092 0014797 177.7617 182.3693 15.21567676108451
STF-1                   
1 43852U 18104D   20333.51195825  .00003277  00000-0  14284-3 0  9994
2 43852  85.0354  67.5072 0013913 193.3431 166.7445 15.21696263108392
ZACUBE-2                
1 43907U 18111AH  20334.58640262  .00001478  00000-0  62110-4 0  9994
2 43907  97.2496 229.2190 0019654 281.6093 127.6562 15.24810613107177
LUME 1                  
1 43908U 18111AJ  20334.51023678  .00003538  00000-0  14193-3 0  9990
2 43908  97.2503 229.4482 0019235 280.8547  79.0527 15.25466651107185
AOBA VELOX-IV           
1 43940U 19003J   20334.37060099  .00005136  00000-0  20265-3 0  9992
2 43940  97.2081  19.8581 0023303   3.8736 356.2678 15.25722117103788
CATSAT-2                
1 44029U 98067PV  20333.89070763  .00066490  00000-0  45292-3 0  9990
2 44029  51.6364 198.5987 0000343   4.5340 355.5662 15.74241834104331
DELPHINI                
1 44030U 98067PW  20334.44990483  .00093067  00000-0  56243-3 0  9992
2 44030  51.6307 192.3594 0000737 190.5980 169.5005 15.76850063104436
UNITE                   
1 44031U 98067PX  20334.13981618  .00034008  00000-0  33380-3 0  9996
2 44031  51.6363 209.9967 0001020 356.1024   3.9963 15.65722926104172
CATSAT-1                
1 44033U 98067PZ  20334.33475059  .00066047  00000-0  44802-3 0  9996
2 44033  51.6359 196.3245 0000656  11.3829 348.7184 15.74341938104315
RAAVANA-1               
1 44329U 98067QE  20333.15874978  .00037352  00000-0  41408-3 0  9992
2 44329  51.6383 231.2854 0004161 235.5815 124.4786 15.62575151 82556
UGUISU                  
1 44330U 98067QF  20333.43829762  .00035821  00000-0  39940-3 0  9993
2 44330  51.6361 230.1085 0004160 236.3819 123.6779 15.62447520 82573
NEPALISAT-1             
1 44331U 98067QG  20334.42883684  .00036537  00000-0  40364-3 0  9994
2 44331  51.6357 224.7260 0004178 243.7791 116.2774 15.62675133 82748
SPOOQY-1                
1 44332U 98067QH  20333.74338437  .00038238  00000-0  42675-3 0  9997
2 44332  51.6364 228.4113 0003286 240.5084 119.5582 15.62394801 82590
SPACEBEE-9              
1 44370U 19037F   20333.85459418  .00037087  00000-0  71801-3 0  9998
2 44370  45.0047 274.6570 0012035  86.4129 273.8138 15.47078974 80026
SPACEBEE-8              
1 44371U 19037G   20334.21900298  .00083205  00000-0  11593-2 0  9991
2 44371  45.0047 258.7982 0011197 119.8008 240.4000 15.55953514 80223
IOD-1 GEMS              
1 44385U 98067QK  20334.16862702  .00074930  00000-0  63192-3 0  9995
2 44385  51.6366 220.0656 0003940 181.8139 178.2844 15.69115540 80257
MOVE-IIB                
1 44398U 19038N   20334.48211877  .00003824  00000-0  22013-3 0  9997
2 44398  97.5574 293.8407 0023233 281.0434  78.8185 15.12823443 77526
SONATE                  
1 44400U 19038Q   20334.56794151  .00001520  00000-0  91416-4 0  9996
2 44400  97.5620 293.9141 0023590 279.3247  80.5316 15.12172790 77524
LUCKY-7                 
1 44406U 19038W   20334.42058428  .00001963  00000-0  11599-3 0  9991
2 44406  97.5622 293.9312 0022828 278.5855  81.2789 15.12486061 77500
BEESAT 9                
1 44412U 19038AC  20334.40696071  .00002501  00000-0  14617-3 0  9991
2 44412  97.5610 293.9047 0020896 284.9515  74.9403 15.12653015 77200
JAISAT-1                
1 44419U 19038F   20333.84549769  .00003162  00000-0  18145-3 0  9990
2 44419  97.5610 293.7383 0019750 285.6903  74.2149 15.13133835 77455
SWIATOWID               
1 44426U 98067QL  20334.54745826  .00099549  00000-0  74528-3 0  9998
2 44426  51.6380 215.6467 0004295 177.4397 251.3053 15.71853717 80365
KRAKSAT                 
1 44427U 98067QM  20334.15322252  .00024833  00000-0  31503-3 0  9990
2 44427  51.6422 232.4900 0003273 184.5331 291.5107 15.59279363 80141
VCC A                   
1 44428U 98067QN  20334.12360581  .00035575  00000-0  40772-3 0  9998
2 44428  51.6384 228.7821 0002625 190.6706 169.4233 15.61744576 80197
ENTRYSAT                
1 44429U 98067QP  20334.52104829  .00043865  00000-0  45988-3 0  9999
2 44429  51.6357 223.8793 0002951 182.4746 177.6234 15.63933752 80298
VCC C                   
1 44430U 98067QQ  20334.11806089  .00061281  00000-0  56896-3 0  9995
2 44430  51.6354 222.6893 0002879 180.5805 179.5188 15.66842282 79094
VCC B                   
1 44431U 98067QR  20333.73205716  .00040180  00000-0  45763-3 0  9999
2 44431  51.6365 230.6284 0002740 190.3876 169.7061 15.61848314 80072
DUCHIFAT-3              
1 44854U 19089C   20334.34301108  .00000947  00000-0  82567-4 0  9996
2 44854  36.9663 203.7988 0009684 313.9920  46.0035 14.99220514 53059
EYESAT-NANO             
1 44877U 19092E   20334.50941748  .00003716  00000-0  18976-3 0  9992
2 44877  97.4542 155.1451 0013968 159.6794 200.4998 15.17238336 52618
ORBITAL FACTORY 2 (OF-2)
1 45113U 19071C   20333.29865960  .00007605  00000-0  23706-3 0  9997
2 45113  51.6427 291.6818 0011980 289.1311  70.8374 15.34177879 46270
M2 PATHFINDER           
1 45727U 20037E   20334.47267366  .00000530  00000-0  58729-4 0  9993
2 45727  97.7036 150.7678 0014009 110.4840 249.7878 14.91269464 22617
NETSAT-4                
1 46504U 20068U   20333.57640273  .00001435  00000-0  11442-3 0  9998
2 46504  97.6686 266.3511 0011567  56.4044 303.8311 15.01865052  9089
NETSAT-3                
1 46505U 20068V   20333.57795970  .00001424  00000-0  11366-3 0  9997
2 46505  97.6651 266.3438 0011271  58.0646 302.1686 15.01822179  9099
NETSAT-1                
1 46506U 20068W   20333.57967783  .00001192  00000-0  96045-4 0  9991
2 46506  97.6661 266.3433 0011144  58.2517 301.9807 15.01777443  9099
NETSAT-2                
1 46507U 20068X   20333.58026469  .00000989  00000-0  80476-4 0  9994
2 46507  97.6647 266.3415 0011487  58.5546 301.6812 15.01759192  9048
SPOC                    
1 46921U 98067RR  20333.49353912  .00013562  00000-0  24028-3 0  9995
2 46921  51.6433 255.2767 0003016  63.8902 296.2397 15.50577163  3638
